29268,ARIRANG-2 (KOMPSAT-2),2006,98.34,800.0,+,97.84,Active,1,LEO,Russia,South Korea,Commercial/Government,Earth Observation/Technology Development,Rokot,1 29268U 06031A   25158.88422801  .00000325  00000+0  70060-4 0  9997,2 29268  97.8371 356.4369 0014554 175.4026 297.5482 14.64299549  6796,14.64299549,0.0014554,LEO
29709,LAPAN-TUBSAT,2007,96.95,60.0,+,98.11,Active,1,LEO,India,Indonesia,Government,Earth Observation/Technology Development,PSLV,1 29709U 07001A   25158.91480243  .00000518  00000+0  66821-4 0  9997,2 29709  98.1090 145.4087 0011559 330.0757  29.9795 14.85335641995599,14.85335641,0.0011559,LEO
31113,HAIYANG-1B,2007,100.64,-1.0,+,98.31,Active,0,LEO,PRC,China,Unknown,Unknown,Unknown,1 31113U 07010A   25158.42562764  .00000086  00000+0  48366-4 0  9998,2 31113  98.3134 150.6517 0012481 229.2064 130.8038 14.30892593947035,14.30892593,0.0012481,LEO
31598,COSMO-SKYMED 1,2007,96.58,1700.0,+,97.89,Active,1,LEO,USA,Italy,Civil/Military,Earth Observation,Delta,1 31598U 07023A   25158.80692935  .00000688  00000+0  75363-4 0  9990,2 31598  97.8872 343.2498 0001438 109.7733 250.3640 14.90967150973896,14.9096715,0.0001438,LEO
31698,TERRASAR-X,2007,94.79,1230.0,+,97.45,Active,1,LEO,Kazakhstan,Germany,Commercial/Government,Earth Observation,Dnepr,1 31698U 07026A   25158.53298498  .00001239  00000+0  62186-4 0  9992,2 31698  97.4453 166.5961 0001796  83.3969 276.7470 15.19152998997004,15.19152998,0.0001796,LEO
32060,WORLDVIEW-1 (WV-1),2007,94.5,4500.0,+,97.38,Active,1,LEO,USA,USA,Commercial,Earth Observation,Delta,1 32060U 07041A   25158.59788629  .00005279  00000+0  22213-3 0  9993,2 32060  97.3765 278.8430 0003089  87.1066 273.0525 15.23805760985867,15.2380576,0.0003089,LEO
32289,YAOGAN-3,2007,96.72,-1.0,+,97.85,Active,0,LEO,PRC,China,Unknown,Unknown,Unknown,1 32289U 07055A   25158.88717301  .00001963  00000+0  21576-3 0  9999,2 32289  97.8527 187.1171 0001353 102.8725 257.2643 14.88781214950194,14.88781214,0.0001353,LEO
32376,COSMO-SKYMED 2,2007,97.16,1700.0,+,97.89,Active,1,LEO,USA,Italy,Government/Military,Earth Observation,Delta,1 32376U 07059A   25158.81522115  .00000438  00000+0  61647-4 0  9990,2 32376  97.8873 342.8468 0001456  92.3941 267.7439 14.82146112946629,14.82146112,0.0001456,LEO
32382,RADARSAT-2,2007,100.7,2924.0,+,98.58,Active,1,LEO,Kazakhstan,Canada,Commercial,Earth Observation,Soyuz,1 32382U 07061A   25158.90359892  .00000079  00000+0  47469-4 0  9997,2 32382  98.5776 166.1729 0001280  89.6266 270.5063 14.29984416912577,14.29984416,0.000128,LEO
32783,CARTOSAT-2A,2008,97.38,680.0,+,97.82,Active,1,LEO,India,India,Military,Earth Observation,PSLV,1 32783U 08021A   25158.83343035  .00000678  00000+0  99112-4 0  9990,2 32783  97.8152 214.2566 0010016 243.5352 116.4832 14.78753942923565,14.78753942,0.0010016,LEO
33320,HUANJING 1A (HJ-1A),2008,97.12,470.0,+,97.64,Active,1,LEO,PRC,China,Government,Earth Observation,Long March,1 33320U 08041A   25158.91995788  .00001199  00000+0  15451-3 0  9999,2 33320  97.6402 155.2930 0017863 288.8742  71.0535 14.82698910903023,14.8269891,0.0017863,LEO
33321,HUANJING 1B (HJ-1B),2008,97.15,470.0,+,97.63,Active,1,LEO,PRC,China,Government,Earth Observation,Long March,1 33321U 08041B   25158.88175400  .00000927  00000+0  12129-3 0  9994,2 33321  97.6288 159.3867 0036360 333.8605  26.0772 14.82248468903035,14.82248468,0.003636,LEO
33331,GEOEYE 1,2008,98.32,1955.0,+,98.12,Active,1,LEO,USA,USA,Commercial/Government,Earth Observation,Delta,1 33331U 08042A   25158.86647277  .00000455  00000+0  94537-4 0  9990,2 33331  98.1218 232.5499 0005082 141.5522 218.6044 14.64674800895370,14.646748,0.0005082,LEO
33396,THEOS,2008,101.4,750.0,+,98.61,Active,1,LEO,Russia,Thailand,Government,Earth Observation,Dnepr,1 33396U 08049A   25158.83893031  .00000050  00000+0  43626-4 0  9990,2 33396  98.6094 222.1814 0001047  98.6619 261.4677 14.20108057864855,14.20108057,0.0001047,LEO
