[
  {
    "OBJECT_NAME": "ARIRANG-2 (KOMPSAT-2)",
    "OBJECT_ID": "2006-031A",
    "EPOCH": "2025-06-07T21:13:17.300064",
    "MEAN_MOTION": 14.64299549,
    "ECCENTRICITY": 0.0014554,
    "INCLINATION": 97.8371,
    "RA_OF_ASC_NODE": 356.4369,
    "ARG_OF_PERICENTER": 175.4026,
    "MEAN_ANOMALY": 297.5482,
    "EPHEMERIS_TYPE": 0,
    "CLASSIFICATION_TYPE": "U",
    "NORAD_CAT_ID": 29268,
    "ELEMENT_SET_NO": 999,
    "REV_AT_EPOCH": 679,
    "BSTAR": 7.006e-05,
    "MEAN_MOTION_DOT": 3.25e-06,
    "MEAN_MOTION_DDOT": 0
  },
  {
    "OBJECT_NAME": "LAPAN-TUBSAT",
    "OBJECT_ID": "2007-001A",
    "EPOCH": "2025-06-07T21:57:18.929952",
    "MEAN_MOTION": 14.85335641,
    "ECCENTRICITY": 0.0011559,
    "INCLINATION": 98.109,
    "RA_OF_ASC_NODE": 145.4087,
    "ARG_OF_PERICENTER": 330.0757,
    "MEAN_ANOMALY": 29.9795,
    "EPHEMERIS_TYPE": 0,
    "CLASSIFICATION_TYPE": "U",
    "NORAD_CAT_ID": 29709,
    "ELEMENT_SET_NO": 999,
    "REV_AT_EPOCH": 99559,
    "BSTAR": 6.6821e-05,
    "MEAN_MOTION_DOT": 5.18e-06,
    "MEAN_MOTION_DDOT": 0
  },
  {
    "OBJECT_NAME": "HAIYANG-1B",
    "OBJECT_ID": "2007-010A",
    "EPOCH": "2025-06-07T10:12:54.228096",
    "MEAN_MOTION": 14.30892593,
    "ECCENTRICITY": 0.0012481,
    "INCLINATION": 98.3134,
    "RA_OF_ASC_NODE": 150.6517,
    "ARG_OF_PERICENTER": 229.2064,
    "MEAN_ANOMALY": 130.8038,
    "EPHEMERIS_TYPE": 0,
    "CLASSIFICATION_TYPE": "U",
    "NORAD_CAT_ID": 31113,
    "ELEMENT_SET_NO": 999,
    "REV_AT_EPOCH": 94703,
    "BSTAR": 4.8366e-05,
    "MEAN_MOTION_DOT": 8.6e-07,
    "MEAN_MOTION_DDOT": 0
  },
  {
    "OBJECT_NAME": "COSMO-SKYMED 1",
    "OBJECT_ID": "2007-023A",
    "EPOCH": "2025-06-07T19:21:58.695840",
    "MEAN_MOTION": 14.9096715,
    "ECCENTRICITY": 0.0001438,
    "INCLINATION": 97.8872,
    "RA_OF_ASC_NODE": 343.2498,
    "ARG_OF_PERICENTER": 109.7733,
    "MEAN_ANOMALY": 250.364,
    "EPHEMERIS_TYPE": 0,
    "CLASSIFICATION_TYPE": "U",
    "NORAD_CAT_ID": 31598,
    "ELEMENT_SET_NO": 999,
    "REV_AT_EPOCH": 97389,
    "BSTAR": 7.5363e-05,
    "MEAN_MOTION_DOT": 6.88e-06,
    "MEAN_MOTION_DDOT": 0
  },
  {
    "OBJECT_NAME": "TERRASAR-X",
    "OBJECT_ID": "2007-026A",
    "EPOCH": "2025-06-07T12:47:29.902272",
    "MEAN_MOTION": 15.19152998,
    "ECCENTRICITY": 0.0001796,
    "INCLINATION": 97.4453,
    "RA_OF_ASC_NODE": 166.5961,
    "ARG_OF_PERICENTER": 83.3969,
    "MEAN_ANOMALY": 276.747,
    "EPHEMERIS_TYPE": 0,
    "CLASSIFICATION_TYPE": "U",
    "NORAD_CAT_ID": 31698,
    "ELEMENT_SET_NO": 999,
    "REV_AT_EPOCH": 99700,
    "BSTAR": 6.2186e-05,
    "MEAN_MOTION_DOT": 1.239e-05,
    "MEAN_MOTION_DDOT": 0
  },
  {
    "OBJECT_NAME": "WORLDVIEW-1 (WV-1)",
    "OBJECT_ID": "2007-041A",
    "EPOCH": "2025-06-07T14:20:57.375456",
    "MEAN_MOTION": 15.2380576,
    "ECCENTRICITY": 0.0003089,
    "INCLINATION": 97.3765,
    "RA_OF_ASC_NODE": 278.843,
    "ARG_OF_PERICENTER": 87.1066,
    "MEAN_ANOMALY": 273.0525,
    "EPHEMERIS_TYPE": 0,
    "CLASSIFICATION_TYPE": "U",
    "NORAD_CAT_ID": 32060,
    "ELEMENT_SET_NO": 999,
    "REV_AT_EPOCH": 98586,
    "BSTAR": 0.00022213,
    "MEAN_MOTION_DOT": 5.279e-05,
    "MEAN_MOTION_DDOT": 0
  },
  {
    "OBJECT_NAME": "YAOGAN-3",
    "OBJECT_ID": "2007-055A",
    "EPOCH": "2025-06-07T21:17:31.748064",
    "MEAN_MOTION": 14.88781214,
    "ECCENTRICITY": 0.0001353,
    "INCLINATION": 97.8527,
    "RA_OF_ASC_NODE": 187.1171,
    "ARG_OF_PERICENTER": 102.8725,
    "MEAN_ANOMALY": 257.2643,
    "EPHEMERIS_TYPE": 0,
    "CLASSIFICATION_TYPE": "U",
    "NORAD_CAT_ID": 32289,
    "ELEMENT_SET_NO": 999,
    "REV_AT_EPOCH": 95019,
    "BSTAR": 0.00021576,
    "MEAN_MOTION_DOT": 1.963e-05,
    "MEAN_MOTION_DDOT": 0
  },
  {
    "OBJECT_NAME": "COSMO-SKYMED 2",
    "OBJECT_ID": "2007-059A",
    "EPOCH": "2025-06-07T19:33:55.107360",
    "MEAN_MOTION": 14.82146112,
    "ECCENTRICITY": 0.0001456,
    "INCLINATION": 97.8873,
    "RA_OF_ASC_NODE": 342.8468,
    "ARG_OF_PERICENTER": 92.3941,
    "MEAN_ANOMALY": 267.7439,
    "EPHEMERIS_TYPE": 0,
    "CLASSIFICATION_TYPE": "U",
    "NORAD_CAT_ID": 32376,
    "ELEMENT_SET_NO": 999,
    "REV_AT_EPOCH": 94662,
    "BSTAR": 6.1647e-05,
    "MEAN_MOTION_DOT": 4.38e-06,
    "MEAN_MOTION_DDOT": 0
  },
  {
    "OBJECT_NAME": "RADARSAT-2",
    "OBJECT_ID": "2007-061A",
    "EPOCH": "2025-06-07T21:41:10.946688",
    "MEAN_MOTION": 14.29984416,
    "ECCENTRICITY": 0.000128,
    "INCLINATION": 98.5776,
    "RA_OF_ASC_NODE": 166.1729,
    "ARG_OF_PERICENTER": 89.6266,
    "MEAN_ANOMALY": 270.5063,
    "EPHEMERIS_TYPE": 0,
    "CLASSIFICATION_TYPE": "U",
    "NORAD_CAT_ID": 32382,
    "ELEMENT_SET_NO": 999,
    "REV_AT_EPOCH": 91257,
    "BSTAR": 4.7469e-05,
    "MEAN_MOTION_DOT": 7.9e-07,
    "MEAN_MOTION_DDOT": 0
  },
  {
    "OBJECT_NAME": "CARTOSAT-2A",
    "OBJECT_ID": "2008-021A",
    "EPOCH": "2025-06-07T20:00:08.382240",
    "MEAN_MOTION": 14.78753942,
    "ECCENTRICITY": 0.0010016,
    "INCLINATION": 97.8152,
    "RA_OF_ASC_NODE": 214.2566,
    "ARG_OF_PERICENTER": 243.5352,
    "MEAN_ANOMALY": 116.4832,
    "EPHEMERIS_TYPE": 0,
    "CLASSIFICATION_TYPE": "U",
    "NORAD_CAT_ID": 32783,
    "ELEMENT_SET_NO": 999,
    "REV_AT_EPOCH": 92356,
    "BSTAR": 9.9112e-05,
    "MEAN_MOTION_DOT": 6.78e-06,
    "MEAN_MOTION_DDOT": 0
  },
  {
    "OBJECT_NAME": "HUANJING 1A (HJ-1A)",
    "OBJECT_ID": "2008-041A",
    "EPOCH": "2025-06-07T22:04:44.360832",
    "MEAN_MOTION": 14.8269891,
    "ECCENTRICITY": 0.0017863,
    "INCLINATION": 97.6402,
    "RA_OF_ASC_NODE": 155.293,
    "ARG_OF_PERICENTER": 288.8742,
    "MEAN_ANOMALY": 71.0535,
    "EPHEMERIS_TYPE": 0,
    "CLASSIFICATION_TYPE": "U",
    "NORAD_CAT_ID": 33320,
    "ELEMENT_SET_NO": 999,
    "REV_AT_EPOCH": 90302,
    "BSTAR": 0.00015451,
    "MEAN_MOTION_DOT": 1.199e-05,
    "MEAN_MOTION_DDOT": 0
  },
  {
    "OBJECT_NAME": "HUANJING 1B (HJ-1B)",
    "OBJECT_ID": "2008-041B",
    "EPOCH": "2025-06-07T21:09:43.545600",
    "MEAN_MOTION": 14.82248468,
    "ECCENTRICITY": 0.003636,
    "INCLINATION": 97.6288,
    "RA_OF_ASC_NODE": 159.3867,
    "ARG_OF_PERICENTER": 333.8605,
    "MEAN_ANOMALY": 26.0772,
    "EPHEMERIS_TYPE": 0,
    "CLASSIFICATION_TYPE": "U",
    "NORAD_CAT_ID": 33321,
    "ELEMENT_SET_NO": 999,
    "REV_AT_EPOCH": 90303,
    "BSTAR": 0.00012129,
    "MEAN_MOTION_DOT": 9.27e-06,
    "MEAN_MOTION_DDOT": 0
  },
  {
    "OBJECT_NAME": "GEOEYE 1",
    "OBJECT_ID": "2008-042A",
    "EPOCH": "2025-06-07T20:47:43.247328",
    "MEAN_MOTION": 14.646748,
    "ECCENTRICITY": 0.0005082,
    "INCLINATION": 98.1218,
    "RA_OF_ASC_NODE": 232.5499,
    "ARG_OF_PERICENTER": 141.5522,
    "MEAN_ANOMALY": 218.6044,
    "EPHEMERIS_TYPE": 0,
    "CLASSIFICATION_TYPE": "U",
    "NORAD_CAT_ID": 33331,
    "ELEMENT_SET_NO": 999,
    "REV_AT_EPOCH": 89537,
    "BSTAR": 9.4537e-05,
    "MEAN_MOTION_DOT": 4.55e-06,
    "MEAN_MOTION_DDOT": 0
  },
  {
    "OBJECT_NAME": "THEOS",
    "OBJECT_ID": "2008-049A",
    "EPOCH": "2025-06-07T20:08:03.578784",
    "MEAN_MOTION": 14.20108057,
    "ECCENTRICITY": 0.0001047,
    "INCLINATION": 98.6094,
    "RA_OF_ASC_NODE": 222.1814,
    "ARG_OF_PERICENTER": 98.6619,
    "MEAN_ANOMALY": 261.4677,
    "EPHEMERIS_TYPE": 0,
    "CLASSIFICATION_TYPE": "U",
    "NORAD_CAT_ID": 33396,
    "ELEMENT_SET_NO": 999,
    "REV_AT_EPOCH": 86485,
    "BSTAR": 4.3626e-05,
    "MEAN_MOTION_DOT": 5e-07,
    "MEAN_MOTION_DDOT": 0
  }
]